{
  "norad_id": 43445,
  "name": "USA 285",
  "history": [
    {
      "epoch": "2026-03-27T07:18:42.134112",
      "apogee_km": 35324.14113482301,
      "perigee_km": 35231.6647261773,
      "latitude_deg": -6.197465932130749,
      "longitude_deg": -102.2531843201723,
      "semi_major_axis_km": 41656.03993050016,
      "eccentricity": 0.00111,
      "inclination_deg": 6.9197,
      "raan_deg": 67.9203,
      "arg_perigee_deg": 168.3512,
      "mean_anomaly_deg": 340.5897,
      "mean_motion_rev_day": 1.02114118
    }
  ]
}