{"fetched_at":"2026-03-29T02:12:04Z","count":15717,"tles":[{"name":"USA 285","line1":"1 43445U 18036E   26086.30465433 -.00000196  00000+0  00000+0 0  9993","line2":"2 43445   6.9197  67.9203 0011100 168.3512 340.5897  1.02114118 26104","category":"Military"}]}